{
  "norad_id": 65545,
  "name": "YAOGAN-40 03B",
  "history": [
    {
      "epoch": "2026-03-28T23:41:40.714656Z",
      "apogee_km": 852.7043472427949,
      "perigee_km": 849.4182428657941,
      "latitude_deg": -8.34570681496692e-05,
      "longitude_deg": -101.73179059475643,
      "height_km": 853.7058223448832,
      "semi_major_axis_km": 7229.198295054294,
      "eccentricity": 0.00022728,
      "inclination_deg": 85.9857,
      "raan_deg": 80.0877,
      "arg_perigee_deg": 77.1335,
      "mean_anomaly_deg": 283.0101,
      "mean_motion_rev_day": 14.12432024
    },
    {
      "epoch": "2026-03-29T03:05:42.473184Z",
      "apogee_km": 852.7006826895213,
      "perigee_km": 849.421518431106,
      "latitude_deg": -2.6510150460906e-05,
      "longitude_deg": -152.94236685838743,
      "height_km": 853.705538633451,
      "semi_major_axis_km": 7229.198100560313,
      "eccentricity": 0.0002268,
      "inclination_deg": 85.9857,
      "raan_deg": 80.0241,
      "arg_perigee_deg": 77.1026,
      "mean_anomaly_deg": 283.041,
      "mean_motion_rev_day": 14.12432081
    },
    {
      "epoch": "2026-03-30T04:35:55.655232Z",
      "apogee_km": 852.6697187588834,
      "perigee_km": 849.4498345145703,
      "latitude_deg": -3.451272064063477e-05,
      "longitude_deg": -177.02209012045157,
      "height_km": 853.70166213908,
      "semi_major_axis_km": 7229.196776636727,
      "eccentricity": 0.0002227,
      "inclination_deg": 85.9858,
      "raan_deg": 79.5467,
      "arg_perigee_deg": 76.7647,
      "mean_anomaly_deg": 283.3784,
      "mean_motion_rev_day": 14.12432469
    },
    {
      "epoch": "2026-03-30T06:17:56.531904Z",
      "apogee_km": 852.6663318955962,
      "perigee_km": 849.4530985396159,
      "latitude_deg": 1.2787397339528772e-05,
      "longitude_deg": 157.37263394305103,
      "height_km": 853.7034735322858,
      "semi_major_axis_km": 7229.196715217606,
      "eccentricity": 0.00022224,
      "inclination_deg": 85.9858,
      "raan_deg": 79.5149,
      "arg_perigee_deg": 76.8054,
      "mean_anomaly_deg": 283.3377,
      "mean_motion_rev_day": 14.12432487
    },
    {
      "epoch": "2026-03-30T13:06:00.040320Z",
      "apogee_km": 852.6587102121575,
      "perigee_km": 849.4599354232378,
      "latitude_deg": -5.9789878534371505e-05,
      "longitude_deg": 54.9514047038826,
      "height_km": 853.7004630355623,
      "semi_major_axis_km": 7229.196322817697,
      "eccentricity": 0.00022124,
      "inclination_deg": 85.9859,
      "raan_deg": 79.3876,
      "arg_perigee_deg": 76.6471,
      "mean_anomaly_deg": 283.4958,
      "mean_motion_rev_day": 14.12432602
    },
    {
      "epoch": "2026-03-30T23:18:05.298624Z",
      "apogee_km": 852.6494664595193,
      "perigee_km": 849.467752887791,
      "latitude_deg": -1.401848463973268e-05,
      "longitude_deg": -98.6804603112695,
      "height_km": 853.6980329498452,
      "semi_major_axis_km": 7229.195609673655,
      "eccentricity": 0.00022006,
      "inclination_deg": 85.9859,
      "raan_deg": 79.1966,
      "arg_perigee_deg": 76.51,
      "mean_anomaly_deg": 283.6328,
      "mean_motion_rev_day": 14.12432811
    },
    {
      "epoch": "2026-03-31T21:24:16.691904Z",
      "apogee_km": 852.6270066248235,
      "perigee_km": 849.4880903518697,
      "latitude_deg": 6.8222406750099255e-06,
      "longitude_deg": -71.54947429383408,
      "height_km": 853.7043425619638,
      "semi_major_axis_km": 7229.194548488346,
      "eccentricity": 0.0002171,
      "inclination_deg": 85.986,
      "raan_deg": 78.7828,
      "arg_perigee_deg": 76.5974,
      "mean_anomaly_deg": 283.5451,
      "mean_motion_rev_day": 14.12433122
    },
    {
      "epoch": "2026-04-01T21:12:28.943712Z",
      "apogee_km": 852.6048207576268,
      "perigee_km": 849.5092798652831,
      "latitude_deg": 5.136611680899865e-05,
      "longitude_deg": -70.02369017951153,
      "height_km": 853.7062618284839,
      "semi_major_axis_km": 7229.194050311455,
      "eccentricity": 0.0002141,
      "inclination_deg": 85.9861,
      "raan_deg": 78.3372,
      "arg_perigee_deg": 76.4962,
      "mean_anomaly_deg": 283.646,
      "mean_motion_rev_day": 14.12433268
    },
    {
      "epoch": "2026-04-02T21:00:41.171328Z",
      "apogee_km": 852.589638222129,
      "perigee_km": 849.5215688811822,
      "latitude_deg": -5.211064440101422e-05,
      "longitude_deg": -68.49771580768788,
      "height_km": 853.7119219731604,
      "semi_major_axis_km": 7229.192603551655,
      "eccentricity": 0.0002122,
      "inclination_deg": 85.9862,
      "raan_deg": 77.8917,
      "arg_perigee_deg": 76.644,
      "mean_anomaly_deg": 283.4979,
      "mean_motion_rev_day": 14.12433692
    },
    {
      "epoch": "2026-04-02T22:42:42.030720Z",
      "apogee_km": 852.5876277072293,
      "perigee_km": 849.522016623122,
      "latitude_deg": -3.399781141993413e-05,
      "longitude_deg": -94.10292161703144,
      "height_km": 853.7116592147702,
      "semi_major_axis_km": 7229.191822165176,
      "eccentricity": 0.00021203,
      "inclination_deg": 85.9862,
      "raan_deg": 77.8599,
      "arg_perigee_deg": 76.653,
      "mean_anomaly_deg": 283.4889,
      "mean_motion_rev_day": 14.12433921
    },
    {
      "epoch": "2026-04-03T20:48:53.360928Z",
      "apogee_km": 852.5778922056725,
      "perigee_km": 849.5286197557007,
      "latitude_deg": -2.647004485899928e-05,
      "longitude_deg": -66.97157432271956,
      "height_km": 853.7168871376708,
      "semi_major_axis_km": 7229.190255980687,
      "eccentricity": 0.0002109,
      "inclination_deg": 85.9864,
      "raan_deg": 77.4462,
      "arg_perigee_deg": 76.8417,
      "mean_anomaly_deg": 283.3001,
      "mean_motion_rev_day": 14.1243438
    },
    {
      "epoch": "2026-04-04T20:37:05.541024Z",
      "apogee_km": 852.5635799677166,
      "perigee_km": 849.5417786817588,
      "latitude_deg": -1.4663203751514863e-05,
      "longitude_deg": -65.44539494328168,
      "height_km": 853.7195016714238,
      "semi_major_axis_km": 7229.189679324738,
      "eccentricity": 0.000209,
      "inclination_deg": 85.9865,
      "raan_deg": 77.0007,
      "arg_perigee_deg": 76.8429,
      "mean_anomaly_deg": 283.2987,
      "mean_motion_rev_day": 14.12434549
    },
    {
      "epoch": "2026-04-05T13:37:14.229120Z",
      "apogee_km": 852.5508715002088,
      "perigee_km": 849.5526377561146,
      "latitude_deg": -2.1607216618922772e-05,
      "longitude_deg": 38.501938716778554,
      "height_km": 853.7182803671001,
      "semi_major_axis_km": 7229.188754628161,
      "eccentricity": 0.00020737,
      "inclination_deg": 85.9867,
      "raan_deg": 76.6825,
      "arg_perigee_deg": 76.7246,
      "mean_anomaly_deg": 283.4168,
      "mean_motion_rev_day": 14.1243482
    },
    {
      "epoch": "2026-04-05T20:25:17.702112Z",
      "apogee_km": 852.5478246975345,
      "perigee_km": 849.5549407070948,
      "latitude_deg": 1.8229966834058405e-05,
      "longitude_deg": -63.91913550688689,
      "height_km": 853.7189323198936,
      "semi_major_axis_km": 7229.188382702314,
      "eccentricity": 0.000207,
      "inclination_deg": 85.9867,
      "raan_deg": 76.5552,
      "arg_perigee_deg": 76.7407,
      "mean_anomaly_deg": 283.4007,
      "mean_motion_rev_day": 14.12434929
    },
    {
      "epoch": "2026-04-06T06:37:22.907712Z",
      "apogee_km": 852.5441465021586,
      "perigee_km": 849.5582026185375,
      "latitude_deg": -3.5013766872711734e-05,
      "longitude_deg": 142.44921132532923,
      "height_km": 853.7212803960597,
      "semi_major_axis_km": 7229.188174560348,
      "eccentricity": 0.00020652,
      "inclination_deg": 85.9868,
      "raan_deg": 76.3642,
      "arg_perigee_deg": 76.8094,
      "mean_anomaly_deg": 283.3319,
      "mean_motion_rev_day": 14.1243499
    },
    {
      "epoch": "2026-04-07T21:43:42.842208Z",
      "apogee_km": 852.5353325017777,
      "perigee_km": 849.5641367538447,
      "latitude_deg": -2.9111903653315946e-05,
      "longitude_deg": -86.47166046630501,
      "height_km": 853.7236448132728,
      "semi_major_axis_km": 7229.18673462781,
      "eccentricity": 0.0002055,
      "inclination_deg": 85.9869,
      "raan_deg": 75.6324,
      "arg_perigee_deg": 76.8927,
      "mean_anomaly_deg": 283.2485,
      "mean_motion_rev_day": 14.12435412
    },
    {
      "epoch": "2026-04-08T14:43:51.500064Z",
      "apogee_km": 852.5328668267985,
      "perigee_km": 849.566008712738,
      "latitude_deg": 3.6671340139389174e-06,
      "longitude_deg": 17.475801288381852,
      "height_km": 853.7240508457493,
      "semi_major_axis_km": 7229.186437769768,
      "eccentricity": 0.0002052,
      "inclination_deg": 85.987,
      "raan_deg": 75.3142,
      "arg_perigee_deg": 76.901,
      "mean_anomaly_deg": 283.2402,
      "mean_motion_rev_day": 14.12435499
    },
    {
      "epoch": "2026-04-09T21:20:07.064160Z",
      "apogee_km": 852.5314914439869,
      "perigee_km": 849.5646338942679,
      "latitude_deg": 8.209222763924754e-06,
      "longitude_deg": -83.41862747232311,
      "height_km": 853.7214521895222,
      "semi_major_axis_km": 7229.185062669128,
      "eccentricity": 0.0002052,
      "inclination_deg": 85.9871,
      "raan_deg": 74.7415,
      "arg_perigee_deg": 76.8524,
      "mean_anomaly_deg": 283.2888,
      "mean_motion_rev_day": 14.12435902
    },
    {
      "epoch": "2026-04-10T12:38:14.833248Z",
      "apogee_km": 852.5251756902899,
      "perigee_km": 849.5698850542731,
      "latitude_deg": 1.8827632301331202e-05,
      "longitude_deg": 46.13416318766637,
      "height_km": 853.7165700925128,
      "semi_major_axis_km": 7229.184530372281,
      "eccentricity": 0.0002044,
      "inclination_deg": 85.9873,
      "raan_deg": 74.4551,
      "arg_perigee_deg": 76.626,
      "mean_anomaly_deg": 283.5151,
      "mean_motion_rev_day": 14.12436058
    }
  ]
}